{
    "type": "FeatureCollection",
    "features": [
        {
            "type": "Feature",
            "properties": {
                "id": 1,
                "nombre": "Línea A",
                "precio": 800,
                "recorrido": "Plaza Colón - Vicuña Mackenna - UTA"
            },
            "geometry": {
                "type": "LineString",
                "coordinates": [
                    [
                        -70.314644,
                        -18.482484
                    ],
                    [
                        -70.311677,
                        -18.484092
                    ],
                    [
                        -70.308285,
                        -18.485419
                    ],
                    [
                        -70.307013,
                        -18.486625
                    ],
                    [
                        -70.304936,
                        -18.488313
                    ],
                    [
                        -70.303792,
                        -18.48968
                    ],
                    [
                        -70.300655,
                        -18.490605
                    ],
                    [
                        -70.302974,
                        -18.493401
                    ],
                    [
                        -70.304398,
                        -18.495771
                    ],
                    [
                        -70.305233,
                        -18.497163
                    ],
                    [
                        -70.305247,
                        -18.497166
                    ],
                    [
                        -70.305247,
                        -18.497166
                    ],
                    [
                        -70.305247,
                        -18.497166
                    ]
                ]
            },
            "bbox": [
                -70.314644,
                -18.497166,
                -70.300655,
                -18.482484
            ]
        },
        {
            "type": "Feature",
            "properties": {
                "id": 2,
                "nombre": "Linea B",
                "precio": 2000,
                "recorrido": "18 septiembre, av Brasil"
            },
            "geometry": {
                "type": "LineString",
                "coordinates": [
                    [
                        -70.297892,
                        -18.50388
                    ],
                    [
                        -70.296557,
                        -18.501399
                    ],
                    [
                        -70.293141,
                        -18.497501
                    ],
                    [
                        -70.2925,
                        -18.495932
                    ],
                    [
                        -70.29218,
                        -18.495071
                    ],
                    [
                        -70.292393,
                        -18.493553
                    ],
                    [
                        -70.292447,
                        -18.493198
                    ],
                    [
                        -70.290418,
                        -18.492641
                    ],
                    [
                        -70.290151,
                        -18.492034
                    ],
                    [
                        -70.290205,
                        -18.490602
                    ],
                    [
                        -70.29186,
                        -18.48883
                    ],
                    [
                        -70.294462,
                        -18.487637
                    ],
                    [
                        -70.298456,
                        -18.486543
                    ],
                    [
                        -70.301588,
                        -18.485463
                    ],
                    [
                        -70.305167,
                        -18.482289
                    ],
                    [
                        -70.309222,
                        -18.479035
                    ],
                    [
                        -70.310365,
                        -18.477556
                    ],
                    [
                        -70.310573,
                        -18.476866
                    ],
                    [
                        -70.307766,
                        -18.473908
                    ],
                    [
                        -70.307558,
                        -18.473316
                    ],
                    [
                        -70.310157,
                        -18.471245
                    ],
                    [
                        -70.311301,
                        -18.470555
                    ],
                    [
                        -70.311405,
                        -18.469963
                    ],
                    [
                        -70.30995,
                        -18.469569
                    ],
                    [
                        -70.308806,
                        -18.468583
                    ],
                    [
                        -70.308598,
                        -18.468287
                    ],
                    [
                        -70.307039,
                        -18.467794
                    ],
                    [
                        -70.304855,
                        -18.466512
                    ],
                    [
                        -70.302984,
                        -18.46878
                    ],
                    [
                        -70.302984,
                        -18.46878
                    ]
                ]
            },
            "bbox": [
                -70.311405,
                -18.50388,
                -70.290151,
                -18.466512
            ]
        },
        {
            "type": "Feature",
            "properties": {
                "id": 3,
                "nombre": "Línea C",
                "precio": 3000,
                "recorrido": "Tucapel, Manantiales"
            },
            "geometry": {
                "type": "LineString",
                "coordinates": [
                    [
                        -70.28427,
                        -18.502797
                    ],
                    [
                        -70.285726,
                        -18.499445
                    ],
                    [
                        -70.287389,
                        -18.495797
                    ],
                    [
                        -70.289053,
                        -18.49274
                    ],
                    [
                        -70.288845,
                        -18.491557
                    ],
                    [
                        -70.287077,
                        -18.490078
                    ],
                    [
                        -70.285726,
                        -18.488599
                    ],
                    [
                        -70.287181,
                        -18.487909
                    ],
                    [
                        -70.289677,
                        -18.486036
                    ],
                    [
                        -70.291444,
                        -18.48436
                    ],
                    [
                        -70.293523,
                        -18.482979
                    ],
                    [
                        -70.295187,
                        -18.48219
                    ],
                    [
                        -70.29581,
                        -18.481303
                    ],
                    [
                        -70.295602,
                        -18.480711
                    ],
                    [
                        -70.294043,
                        -18.478641
                    ],
                    [
                        -70.292276,
                        -18.477457
                    ],
                    [
                        -70.294251,
                        -18.475288
                    ],
                    [
                        -70.296122,
                        -18.474006
                    ],
                    [
                        -70.29841,
                        -18.472527
                    ],
                    [
                        -70.300073,
                        -18.474499
                    ],
                    [
                        -70.300801,
                        -18.475387
                    ],
                    [
                        -70.302672,
                        -18.473908
                    ],
                    [
                        -70.303712,
                        -18.472527
                    ],
                    [
                        -70.305063,
                        -18.471738
                    ],
                    [
                        -70.305271,
                        -18.471541
                    ],
                    [
                        -70.306935,
                        -18.472823
                    ],
                    [
                        -70.307454,
                        -18.473513
                    ],
                    [
                        -70.309534,
                        -18.475683
                    ],
                    [
                        -70.310573,
                        -18.476669
                    ],
                    [
                        -70.311821,
                        -18.478246
                    ],
                    [
                        -70.312237,
                        -18.478838
                    ],
                    [
                        -70.313484,
                        -18.48081
                    ],
                    [
                        -70.314004,
                        -18.481796
                    ],
                    [
                        -70.314732,
                        -18.48219
                    ],
                    [
                        -70.31286,
                        -18.483374
                    ],
                    [
                        -70.312445,
                        -18.483867
                    ],
                    [
                        -70.309326,
                        -18.484754
                    ],
                    [
                        -70.308598,
                        -18.484951
                    ],
                    [
                        -70.307454,
                        -18.486529
                    ],
                    [
                        -70.306103,
                        -18.487515
                    ],
                    [
                        -70.304855,
                        -18.488501
                    ],
                    [
                        -70.304231,
                        -18.489783
                    ],
                    [
                        -70.302464,
                        -18.490078
                    ],
                    [
                        -70.300801,
                        -18.490374
                    ],
                    [
                        -70.300801,
                        -18.490374
                    ],
                    [
                        -70.300073,
                        -18.490966
                    ],
                    [
                        -70.299345,
                        -18.491459
                    ],
                    [
                        -70.296993,
                        -18.492934
                    ],
                    [
                        -70.296349,
                        -18.492171
                    ],
                    [
                        -70.296135,
                        -18.491696
                    ],
                    [
                        -70.295848,
                        -18.491238
                    ],
                    [
                        -70.295634,
                        -18.490848
                    ],
                    [
                        -70.295491,
                        -18.490712
                    ],
                    [
                        -70.295347,
                        -18.490644
                    ],
                    [
                        -70.294864,
                        -18.490983
                    ],
                    [
                        -70.294381,
                        -18.491187
                    ],
                    [
                        -70.294238,
                        -18.491407
                    ],
                    [
                        -70.294417,
                        -18.491815
                    ],
                    [
                        -70.295008,
                        -18.492951
                    ],
                    [
                        -70.295312,
                        -18.493409
                    ],
                    [
                        -70.295598,
                        -18.493867
                    ],
                    [
                        -70.295938,
                        -18.49458
                    ],
                    [
                        -70.295647,
                        -18.495592
                    ],
                    [
                        -70.295277,
                        -18.496411
                    ],
                    [
                        -70.296182,
                        -18.497581
                    ],
                    [
                        -70.296638,
                        -18.49926
                    ]
                ]
            },
            "bbox": [
                -70.314732,
                -18.502797,
                -70.28427,
                -18.471541
            ]
        }
    ]
}